[{"OBJECT_NAME":"ONEWEB-0273","OBJECT_ID":"2021-060AA","EPOCH":"2025-08-01T15:33:02.912832","MEAN_MOTION":13.16596407,"ECCENTRICITY":0.0001997,"INCLINATION":87.9047,"RA_OF_ASC_NODE":292.4764,"ARG_OF_PERICENTER":92.7501,"MEAN_ANOMALY":267.3858,"EPHEMERIS_TYPE":0,"CLASSIFICATION_TYPE":"U","NORAD_CAT_ID":48991,"ELEMENT_SET_NO":999,"REV_AT_EPOCH":19884,"BSTAR":8.9902e-5,"MEAN_MOTION_DOT":4.7e-7,"MEAN_MOTION_DDOT":0},{"OBJECT_NAME":"ONEWEB-0274","OBJECT_ID":"2021-060AB","EPOCH":"2025-08-01T07:02:21.915744","MEAN_MOTION":13.16594209,"ECCENTRICITY":0.0002399,"INCLINATION":87.9041,"RA_OF_ASC_NODE":292.5815,"ARG_OF_PERICENTER":101.6248,"MEAN_ANOMALY":258.5152,"EPHEMERIS_TYPE":0,"CLASSIFICATION_TYPE":"U","NORAD_CAT_ID":48992,"ELEMENT_SET_NO":999,"REV_AT_EPOCH":19753,"BSTAR":0.0002585,"MEAN_MOTION_DOT":1.12e-6,"MEAN_MOTION_DDOT":0},{"OBJECT_NAME":"ONEWEB-0275","OBJECT_ID":"2021-060AC","EPOCH":"2025-08-01T06:46:24.640896","MEAN_MOTION":13.16594439,"ECCENTRICITY":0.0002117,"INCLINATION":87.9046,"RA_OF_ASC_NODE":292.5449,"ARG_OF_PERICENTER":97.1511,"MEAN_ANOMALY":262.986,"EPHEMERIS_TYPE":0,"CLASSIFICATION_TYPE":"U","NORAD_CAT_ID":48993,"ELEMENT_SET_NO":999,"REV_AT_EPOCH":19746,"BSTAR":0.00027607,"MEAN_MOTION_DOT":1.18e-6,"MEAN_MOTION_DDOT":0},{"OBJECT_NAME":"ONEWEB-0276","OBJECT_ID":"2021-060AD","EPOCH":"2025-08-01T05:44:49.730208","MEAN_MOTION":13.16597022,"ECCENTRICITY":0.0001896,"INCLINATION":87.9048,"RA_OF_ASC_NODE":292.5503,"ARG_OF_PERICENTER":93.4178,"MEAN_ANOMALY":266.717,"EPHEMERIS_TYPE":0,"CLASSIFICATION_TYPE":"U","NORAD_CAT_ID":48994,"ELEMENT_SET_NO":999,"REV_AT_EPOCH":19747,"BSTAR":-6.0927e-5,"MEAN_MOTION_DOT":-1.0e-7,"MEAN_MOTION_DDOT":0},{"OBJECT_NAME":"ONEWEB-0277","OBJECT_ID":"2021-060AE","EPOCH":"2025-08-01T13:20:49.638912","MEAN_MOTION":13.16595792,"ECCENTRICITY":0.0002307,"INCLINATION":87.9043,"RA_OF_ASC_NODE":292.5216,"ARG_OF_PERICENTER":89.6141,"MEAN_ANOMALY":270.5254,"EPHEMERIS_TYPE":0,"CLASSIFICATION_TYPE":"U","NORAD_CAT_ID":48995,"ELEMENT_SET_NO":999,"REV_AT_EPOCH":19750,"BSTAR":-0.00012841,"MEAN_MOTION_DOT":-3.6e-7,"MEAN_MOTION_DDOT":0},{"OBJECT_NAME":"ONEWEB-0278","OBJECT_ID":"2021-060AF","EPOCH":"2025-08-01T05:49:23.543040","MEAN_MOTION":13.16596255,"ECCENTRICITY":0.0001777,"INCLINATION":87.9047,"RA_OF_ASC_NODE":292.5464,"ARG_OF_PERICENTER":97.9255,"MEAN_ANOMALY":262.2077,"EPHEMERIS_TYPE":0,"CLASSIFICATION_TYPE":"U","NORAD_CAT_ID":48996,"ELEMENT_SET_NO":999,"REV_AT_EPOCH":19759,"BSTAR":4.3762e-5,"MEAN_MOTION_DOT":3.0e-7,"MEAN_MOTION_DDOT":0},{"OBJECT_NAME":"ONEWEB-0279","OBJECT_ID":"2021-060AG","EPOCH":"2025-08-01T06:00:48.431520","MEAN_MOTION":13.16593361,"ECCENTRICITY":0.0002307,"INCLINATION":87.9046,"RA_OF_ASC_NODE":292.5405,"ARG_OF_PERICENTER":93.8555,"MEAN_ANOMALY":266.284,"EPHEMERIS_TYPE":0,"CLASSIFICATION_TYPE":"U","NORAD_CAT_ID":48997,"ELEMENT_SET_NO":999,"REV_AT_EPOCH":19752,"BSTAR":-0.00010972,"MEAN_MOTION_DOT":-2.9e-7,"MEAN_MOTION_DDOT":0},{"OBJECT_NAME":"ONEWEB-0280","OBJECT_ID":"2021-060AH","EPOCH":"2025-08-01T11:50:45.923712","MEAN_MOTION":13.16593847,"ECCENTRICITY":0.0001884,"INCLINATION":87.9046,"RA_OF_ASC_NODE":292.4992,"ARG_OF_PERICENTER":87.6872,"MEAN_ANOMALY":272.4474,"EPHEMERIS_TYPE":0,"CLASSIFICATION_TYPE":"U","NORAD_CAT_ID":48998,"ELEMENT_SET_NO":999,"REV_AT_EPOCH":19749,"BSTAR":0.00012238,"MEAN_MOTION_DOT":6.0e-7,"MEAN_MOTION_DDOT":0},{"OBJECT_NAME":"ONEWEB-0281","OBJECT_ID":"2021-060AJ","EPOCH":"2025-08-01T11:58:45.161184","MEAN_MOTION":13.1659403,"ECCENTRICITY":0.0002132,"INCLINATION":87.9045,"RA_OF_ASC_NODE":292.4955,"ARG_OF_PERICENTER":101.3565,"MEAN_ANOMALY":258.7806,"EPHEMERIS_TYPE":0,"CLASSIFICATION_TYPE":"U","NORAD_CAT_ID":48999,"ELEMENT_SET_NO":999,"REV_AT_EPOCH":19756,"BSTAR":8.8371e-5,"MEAN_MOTION_DOT":4.7e-7,"MEAN_MOTION_DDOT":0},{"OBJECT_NAME":"ONEWEB-0282","OBJECT_ID":"2021-060AK","EPOCH":"2025-08-01T05:24:19.214496","MEAN_MOTION":13.16596133,"ECCENTRICITY":0.000203,"INCLINATION":87.904,"RA_OF_ASC_NODE":292.561,"ARG_OF_PERICENTER":92.4867,"MEAN_ANOMALY":267.6496,"EPHEMERIS_TYPE":0,"CLASSIFICATION_TYPE":"U","NORAD_CAT_ID":49000,"ELEMENT_SET_NO":999,"REV_AT_EPOCH":19750,"BSTAR":0.00024259,"MEAN_MOTION_DOT":1.06e-6,"MEAN_MOTION_DDOT":0},{"OBJECT_NAME":"ONEWEB-0283","OBJECT_ID":"2021-060AL","EPOCH":"2025-08-01T16:04:58.611648","MEAN_MOTION":13.16592879,"ECCENTRICITY":0.0002163,"INCLINATION":87.904,"RA_OF_ASC_NODE":292.4763,"ARG_OF_PERICENTER":94.0843,"MEAN_ANOMALY":266.0535,"EPHEMERIS_TYPE":0,"CLASSIFICATION_TYPE":"U","NORAD_CAT_ID":49001,"ELEMENT_SET_NO":999,"REV_AT_EPOCH":19889,"BSTAR":8.3074e-5,"MEAN_MOTION_DOT":4.5e-7,"MEAN_MOTION_DDOT":0},{"OBJECT_NAME":"ONEWEB-0284","OBJECT_ID":"2021-060AM","EPOCH":"2025-08-01T12:16:58.462464","MEAN_MOTION":13.1659614,"ECCENTRICITY":0.0001672,"INCLINATION":87.9055,"RA_OF_ASC_NODE":292.4822,"ARG_OF_PERICENTER":96.0381,"MEAN_ANOMALY":264.094,"EPHEMERIS_TYPE":0,"CLASSIFICATION_TYPE":"U","NORAD_CAT_ID":49002,"ELEMENT_SET_NO":999,"REV_AT_EPOCH":19753,"BSTAR":0.00013949,"MEAN_MOTION_DOT":6.6e-7,"MEAN_MOTION_DDOT":0},{"OBJECT_NAME":"ONEWEB-0285","OBJECT_ID":"2021-075A","EPOCH":"2025-08-01T11:22:43.567104","MEAN_MOTION":13.12446693,"ECCENTRICITY":0.00017,"INCLINATION":87.8847,"RA_OF_ASC_NODE":54.2186,"ARG_OF_PERICENTER":84.0246,"MEAN_ANOMALY":276.1077,"EPHEMERIS_TYPE":0,"CLASSIFICATION_TYPE":"U","NORAD_CAT_ID":49075,"ELEMENT_SET_NO":999,"REV_AT_EPOCH":19327,"BSTAR":0.001146,"MEAN_MOTION_DOT":4.25e-6,"MEAN_MOTION_DDOT":0},{"OBJECT_NAME":"ONEWEB-0286","OBJECT_ID":"2021-075B","EPOCH":"2025-08-01T10:56:36.710016","MEAN_MOTION":13.12443577,"ECCENTRICITY":0.0001707,"INCLINATION":87.8868,"RA_OF_ASC_NODE":54.25,"ARG_OF_PERICENTER":91.8344,"MEAN_ANOMALY":268.298,"EPHEMERIS_TYPE":0,"CLASSIFICATION_TYPE":"U","NORAD_CAT_ID":49076,"ELEMENT_SET_NO":999,"REV_AT_EPOCH":19360,"BSTAR":0.0005036,"MEAN_MOTION_DOT":1.94e-6,"MEAN_MOTION_DDOT":0},{"OBJECT_NAME":"ONEWEB-0287","OBJECT_ID":"2021-075C","EPOCH":"2025-08-01T02:17:49.213536","MEAN_MOTION":13.17650702,"ECCENTRICITY":0.0001467,"INCLINATION":87.9043,"RA_OF_ASC_NODE":69.5697,"ARG_OF_PERICENTER":95.8339,"MEAN_ANOMALY":264.296,"EPHEMERIS_TYPE":0,"CLASSIFICATION_TYPE":"U","NORAD_CAT_ID":49077,"ELEMENT_SET_NO":999,"REV_AT_EPOCH":19147,"BSTAR":1.3664e-5,"MEAN_MOTION_DOT":1.8e-7,"MEAN_MOTION_DDOT":0},{"OBJECT_NAME":"ONEWEB-0288","OBJECT_ID":"2021-075D","EPOCH":"2025-08-01T12:11:33.105984","MEAN_MOTION":13.1244271,"ECCENTRICITY":0.0001595,"INCLINATION":87.8852,"RA_OF_ASC_NODE":54.2049,"ARG_OF_PERICENTER":84.931,"MEAN_ANOMALY":275.2001,"EPHEMERIS_TYPE":0,"CLASSIFICATION_TYPE":"U","NORAD_CAT_ID":49078,"ELEMENT_SET_NO":999,"REV_AT_EPOCH":19325,"BSTAR":-0.0011175,"MEAN_MOTION_DOT":-3.89e-6,"MEAN_MOTION_DDOT":0},{"OBJECT_NAME":"ONEWEB-0289","OBJECT_ID":"2021-075E","EPOCH":"2025-08-01T12:13:40.860480","MEAN_MOTION":13.17098611,"ECCENTRICITY":0.0001535,"INCLINATION":87.9027,"RA_OF_ASC_NODE":69.5172,"ARG_OF_PERICENTER":68.3621,"MEAN_ANOMALY":291.7674,"EPHEMERIS_TYPE":0,"CLASSIFICATION_TYPE":"U","NORAD_CAT_ID":49079,"ELEMENT_SET_NO":999,"REV_AT_EPOCH":19210,"BSTAR":-2.2532e-6,"MEAN_MOTION_DOT":1.2e-7,"MEAN_MOTION_DDOT":0}]
