ONEWEB-0273             
1 48991U 21060AA  25213.64795038  .00000047  00000+0  89902-4 0  9997
2 48991  87.9047 292.4764 0001997  92.7501 267.3858 13.16596407198843
ONEWEB-0274             
1 48992U 21060AB  25213.29330921  .00000112  00000+0  25850-3 0  9999
2 48992  87.9041 292.5815 0002399 101.6248 258.5152 13.16594209197533
ONEWEB-0275             
1 48993U 21060AC  25213.28222964  .00000118  00000+0  27607-3 0  9994
2 48993  87.9046 292.5449 0002117  97.1511 262.9860 13.16594439197464
ONEWEB-0276             
1 48994U 21060AD  25213.23946447 -.00000010  00000+0 -60927-4 0  9995
2 48994  87.9048 292.5503 0001896  93.4178 266.7170 13.16597022197477
ONEWEB-0277             
1 48995U 21060AE  25213.55613008 -.00000036  00000+0 -12841-3 0  9994
2 48995  87.9043 292.5216 0002307  89.6141 270.5254 13.16595792197501
ONEWEB-0278             
1 48996U 21060AF  25213.24263360  .00000030  00000+0  43762-4 0  9992
2 48996  87.9047 292.5464 0001777  97.9255 262.2077 13.16596255197594
ONEWEB-0279             
1 48997U 21060AG  25213.25056055 -.00000029  00000+0 -10972-3 0  9991
2 48997  87.9046 292.5405 0002307  93.8555 266.2840 13.16593361197527
ONEWEB-0280             
1 48998U 21060AH  25213.49358708  .00000060  00000+0  12238-3 0  9998
2 48998  87.9046 292.4992 0001884  87.6872 272.4474 13.16593847197497
ONEWEB-0281             
1 48999U 21060AJ  25213.49913381  .00000047  00000+0  88371-4 0  9990
2 48999  87.9045 292.4955 0002132 101.3565 258.7806 13.16594030197565
ONEWEB-0282             
1 49000U 21060AK  25213.22522239  .00000106  00000+0  24259-3 0  9993
2 49000  87.9040 292.5610 0002030  92.4867 267.6496 13.16596133197509
ONEWEB-0283             
1 49001U 21060AL  25213.67012282  .00000045  00000+0  83074-4 0  9998
2 49001  87.9040 292.4763 0002163  94.0843 266.0535 13.16592879198890
ONEWEB-0284             
1 49002U 21060AM  25213.51178776  .00000066  00000+0  13949-3 0  9999
2 49002  87.9055 292.4822 0001672  96.0381 264.0940 13.16596140197539
ONEWEB-0285             
1 49075U 21075A   25213.47411536  .00000425  00000+0  11460-2 0  9998
2 49075  87.8847  54.2186 0001700  84.0246 276.1077 13.12446693193278
ONEWEB-0286             
1 49076U 21075B   25213.45598044  .00000194  00000+0  50360-3 0  9993
2 49076  87.8868  54.2500 0001707  91.8344 268.2980 13.12443577193604
ONEWEB-0287             
1 49077U 21075C   25213.09570849  .00000018  00000+0  13664-4 0  9999
2 49077  87.9043  69.5697 0001467  95.8339 264.2960 13.17650702191470
ONEWEB-0288             
1 49078U 21075D   25213.50802206 -.00000389  00000+0 -11175-2 0  9997
2 49078  87.8852  54.2049 0001595  84.9310 275.2001 13.12442710193259
ONEWEB-0289             
1 49079U 21075E   25213.50950070  .00000012  00000+0 -22532-5 0  9995
2 49079  87.9027  69.5172 0001535  68.3621 291.7674 13.17098611192100
